STARLINK-30086          
1 56297U 23056M   23265.25001157  .00030436  00000+0  22572-2 0  9999
2 56297  43.0030  57.6336 0001514 285.0085  61.2777 15.02555672 24127
STARLINK-30109          
1 56298U 23056N   23264.72738873  .00000412  00000+0  45593-4 0  9994
2 56298  43.0037  60.5640 0001877 284.5845  75.4789 15.02535955 24702
STARLINK-30108          
1 56299U 23056P   23265.09333815  .00013305  00000+0  99777-3 0  9990
2 56299  43.0033  46.0140 0001637 300.4445  59.6236 15.02550789 24243
STARLINK-30104          
1 56300U 23056Q   23265.14612244  .00012679  00000+0  95151-3 0  9990
2 56300  43.0002  57.7651 0001392 267.4640  92.6043 15.02552609 24117
STARLINK-30101          
1 56301U 23056R   23265.15869967  .00010915  00000+0  83920-3 0  9990
2 56301  43.0026  57.8447 0001567 267.8834  92.1828 15.01739055 24129
STARLINK-30111          
1 56302U 23056S   23265.25001157 -.00137215  00000+0 -10322-1 0  9990
2 56302  43.0029  57.4202 0001759 268.4632 168.0629 15.02608992 24133
STARLINK-30097          
1 56303U 23056T   23265.09671483  .00030058  00000+0  16175-2 0  9996
2 56303  43.0009  51.4022 0009817 313.2023  46.8003 15.14278241 24189
STARLINK-30099          
1 56304U 23056U   23264.69919777  .00006891  00000+0  53595-3 0  9999
2 56304  43.0012  60.3442 0001749 259.7842 100.2802 15.01726010 24706
STARLINK-30094          
1 56305U 23056V   23264.87123658  .00023164  00000+0  17606-2 0  9999
2 56305  43.0034  58.2030 0001693 294.3072  65.7594 15.01743236 24081
STARLINK-30112          
1 56306U 23056W   23264.84036329  .00023049  00000+0  17146-2 0  9996
2 56306  43.0038  59.6886 0001978 267.7880  92.2736 15.02559908 24060
STARLINK-6038           
1 56317U 23058A   23264.87006284  .00000391  00000+0  35009-4 0  9995
2 56317  97.6542 264.4983 0004528  53.8398 306.3244 15.01261807 22779
STARLINK-5954           
1 56318U 23058B   23264.99966111 -.00000561  00000+0 -39096-4 0  9994
2 56318  97.6544 264.6328 0003220  41.0975 319.0491 15.01262974 22653
STARLINK-6039           
1 56319U 23058C   23264.99781210  .00000283  00000+0  26602-4 0  9998
2 56319  97.6539 264.6352 0003783  35.5508 324.5968 15.01260713 22658
STARLINK-5988           
1 56320U 23058D   23264.99410613  .00000145  00000+0  15855-4 0  9991
2 56320  97.6540 264.6366 0002228  90.0524 270.0955 15.01261122 22650
STARLINK-5876           
1 56321U 23058E   23264.99219271 -.00507497  00000+0 -43504-1 0  9992
2 56321  97.6531 264.6409 0002804  53.5704 306.5777 14.99888356 22649
STARLINK-6033           
1 56322U 23058F   23265.00151665  .00000195  00000+0  19809-4 0  9993
2 56322  97.6541 264.6312 0004156  45.1874 314.9688 15.01260941 22654
STARLINK-6035           
1 56323U 23058G   23264.79316156 -.00052275  00000+0 -41483-2 0  9996
2 56323  97.6541 264.4402 0002145  70.7391 289.4065 15.00769819 22750
STARLINK-6034           
1 56324U 23058H   23264.99595771  .00000460  00000+0  40434-4 0  9995
2 56324  97.6537 264.6370 0003036  37.6993 322.4443 15.01261722 22650
STARLINK-5981           
1 56325U 23058J   23264.92004265  .00000254  00000+0  24386-4 0  9991
2 56325  97.6527 264.5753 0001277  78.2192 281.9175 15.01261026 23133
STARLINK-5980           
1 56326U 23058K   23264.99620261  .00000518  00000+0  44929-4 0  9997
2 56326  97.6543 264.6333 0002651  90.1185 270.0343 15.01262411 22650
STARLINK-5997           
1 56327U 23058L   23264.98299310 -.00000093  00000+0 -26306-5 0  9994
2 56327  97.6532 264.6422 0001225  94.3564 265.7800 15.01259976 22652
STARLINK-5992           
1 56328U 23058M   23264.72193973 -.00000064  00000+0 -38465-6 0  9993
2 56328  97.6523 264.3794 0001387  61.8425 298.2939 15.01258678 23109
STARLINK-5984           
1 56329U 23058N   23264.98484416  .00000379  00000+0  34126-4 0  9992
2 56329  97.6531 264.6407 0001657  90.7085 269.4329 15.01261915 22656
STARLINK-5967           
1 56330U 23058P   23264.98879608  .00000267  00000+0  25395-4 0  9999
2 56330  97.6531 264.6408 0001622  97.3443 262.7965 15.01260707 22652
STARLINK-5991           
1 56331U 23058Q   23265.04593945 -.00000131  00000+0 -55731-5 0  9995
2 56331  97.6532 264.7118 0001172 164.3650 195.7610 15.01260224 22665
STARLINK-5093           
1 56332U 23058R   23264.99040245  .00000246  00000+0  23770-4 0  9991
2 56332  97.6534 264.6343 0001818  93.4090 266.7342 15.01260878 22659
STARLINK-5553           
1 56333U 23058S   23264.97741424  .00004044  00000+0  31911-3 0  9992
2 56333  97.6534 264.6481 0001875 150.3809 209.7522 15.01278335 22651
STARLINK-5548           
1 56334U 23058T   23264.98113957 -.00000096  00000+0 -28755-5 0  9997
2 56334  97.6531 264.6440 0000820 113.2453 246.8857 15.01260668 22659
STARLINK-5559           
1 56335U 23058U   23265.03877901  .00000005  00000+0  49821-5 0  9996
2 56335  97.6537 264.7207 0002454 146.4045 213.7335 15.01261164 22665
STARLINK-5562           
1 56336U 23058V   23264.91288051  .00000038  00000+0  75806-5 0  9993
2 56336  97.6532 264.5801 0001420 149.7383 210.3923 15.01260698 23132
STARLINK-5561           
1 56337U 23058W   23265.03853535 -.00000027  00000+0  25050-5 0  9998
2 56337  97.6538 264.7210 0002405 145.0100 215.1282 15.01260512 22668
STARLINK-5554           
1 56338U 23058X   23265.04223685 -.00000103  00000+0 -34529-5 0  9994
2 56338  97.6532 264.7160 0002015 158.9039 201.2268 15.01260822 22662
STARLINK-5552           
1 56339U 23058Y   23264.96817777  .00000509  00000+0  44228-4 0  9990
2 56339  97.6545 264.6612 0002306 136.1085 224.0322 15.01262850 22656
STARLINK-5540           
1 56340U 23058Z   23264.90708634  .00000325  00000+0  29902-4 0  9995
2 56340  97.6536 264.5872 0001954 144.6425 215.4929 15.01246889 23130
STARLINK-5543           
1 56341U 23058AA  23264.89805975 -.00001799  00000+0 -13546-3 0  9994
2 56341  97.6550 264.6024 0002111 103.2513 256.8947 15.01263182 23136
STARLINK-5955           
1 56342U 23058AB  23264.90337976  .00000865  00000+0  71932-4 0  9993
2 56342  97.6541 264.5922 0002131 121.3137 238.8296 15.01249712 23138
STARLINK-5976           
1 56343U 23058AC  23265.02927647  .00000428  00000+0  37907-4 0  9997
2 56343  97.6569 264.7398 0002143 102.1159 258.0305 15.01261114 22664
STARLINK-5974           
1 56344U 23058AD  23265.03297917  .00000214  00000+0  21243-4 0  9998
2 56344  97.6549 264.7301 0002050 109.6186 250.5259 15.01262134 22664
STARLINK-5979           
1 56345U 23058AE  23264.89251080  .00001907  00000+0  15304-3 0  9993
2 56345  97.6568 264.6184 0002287  80.2269 279.9214 15.01259612 23138
STARLINK-5837           
1 56346U 23058AF  23264.89783573  .00001159  00000+0  94823-4 0  9994
2 56346  97.6558 264.6026 0001960 109.4101 250.7335 15.01260853 23139
STARLINK-5829           
1 56347U 23058AG  23265.02557106  .00001013  00000+0  83449-4 0  9993
2 56347  97.6559 264.7508 0002163  85.2282 274.9189 15.01263839 22663
STARLINK-5888           
1 56348U 23058AH  23265.02742179  .00000864  00000+0  71871-4 0  9999
2 56348  97.6564 264.7461 0001716  83.0343 277.1077 15.01264798 22661
STARLINK-5887           
1 56349U 23058AJ  23264.88510355 -.00002434  00000+0 -18487-3 0  9992
2 56349  97.6550 264.6341 0002635  86.0891 274.0634 15.01284245 23132
STARLINK-5886           
1 56350U 23058AK  23264.88855861 -.00002215  00000+0 -16779-3 0  9997
2 56350  97.6555 264.6276 0001825  89.5836 270.5597 15.01277888 23137
STARLINK-5891           
1 56351U 23058AL  23264.88485975  .00000929  00000+0  76883-4 0  9994
2 56351  97.6552 264.6344 0002393  90.8538 269.2961 15.01262959 23139
STARLINK-5885           
1 56352U 23058AM  23264.89043507 -.00000898  00000+0 -65389-4 0  9993
2 56352  97.6569 264.6218 0001373 107.6382 252.4992 15.01243912 23135
STARLINK-5874           
1 56353U 23058AN  23264.87191632 -.00000030  00000+0  23081-5 0  9996
2 56353  97.6534 264.6533 0004803  55.7028 304.4651 15.01256505 23131
STARLINK-5877           
1 56354U 23058AP  23264.88671071  .00001048  00000+0  86159-4 0  9991
2 56354  97.6557 264.6311 0001978  90.0517 270.0934 15.01262888 23139
STARLINK-5533           
1 56355U 23058AQ  23265.01261114  .00000444  00000+0  39167-4 0  9997
2 56355  97.6542 264.7750 0003381  80.5718 279.5888 15.01260471 22664
STARLINK-5535           
1 56356U 23058AR  23265.01446183  .00000253  00000+0  24325-4 0  9997
2 56356  97.6545 264.7724 0003116  82.9690 277.1888 15.01264046 22666
STARLINK-5538           
1 56357U 23058AS  23264.87955427  .00000371  00000+0  33477-4 0  9996
2 56357  97.6542 264.6438 0003467  80.3797 279.7819 15.01259607 23136
STARLINK-5482           
1 56358U 23058AT  23264.94966158  .00001115  00000+0  91376-4 0  9997
2 56358  97.6545 264.7036 0002846  90.4232 269.7319 15.01260404 22658
STARLINK-5551           
1 56359U 23058AU  23264.87561693 -.00001400  00000+0 -10446-3 0  9992
2 56359  97.6544 264.6489 0003797  64.4921 295.6695 15.01247040 23131
STARLINK-5549           
1 56360U 23058AV  23265.01074988 -.00000329  00000+0 -21005-4 0  9990
2 56360  97.6543 264.7779 0002927  86.9357 273.2202 15.01251881 22662
STARLINK-5550           
1 56361U 23058AW  23264.87215977 -.00001154  00000+0 -85253-4 0  9991
2 56361  97.6534 264.6532 0004758  56.4318 303.7360 15.01251204 23138
STARLINK-5972           
1 56362U 23058AX  23264.87375240  .00000827  00000+0  69015-4 0  9994
2 56362  97.6538 264.6511 0004380  66.6003 293.5682 15.01258690 23134
STARLINK-6156           
1 56374U 23061A   23264.78860541  .00001074  00000+0  94499-4 0  9993
2 56374  43.0049  47.4902 0001329 271.9758  88.0933 15.02550533 21707
STARLINK-6158           
1 56375U 23061B   23264.78306751  .00014097  00000+0  10561-2 0  9997
2 56375  43.0044  47.4471 0001256 278.9623  81.1078 15.02550872 21385
STARLINK-6188           
1 56376U 23061C   23264.45400291  .00000225  00000+0  31719-4 0  9994
2 56376  43.0049  49.2782 0001396 266.6434  93.4248 15.02540890 21334
